OBJECT_NAME,OBJECT_ID,EPOCH,MEAN_MOTION,ECCENTRICITY,INCLINATION,RA_OF_ASC_NODE,ARG_OF_PERICENTER,MEAN_ANOMALY,EPHEMERIS_TYPE,CLASSIFICATION_TYPE,NORAD_CAT_ID,ELEMENT_SET_NO,REV_AT_EPOCH,BSTAR,MEAN_MOTION_DOT,MEAN_MOTION_DDOT
ONEWEB-0236,2021-045AG,2026-07-04T03:16:44.389632,13.15547627,.0002122,87.8992,255.8293,97.3716,262.7655,0,U,48797,999,24648,-.10719125E-3,-.28E-6,0
ONEWEB-0248,2021-045AH,2026-07-04T03:34:59.344608,13.15548550,.00022167,87.9004,255.8124,112.2632,247.8734,0,U,48798,999,24664,-.2671949E-5,.12E-6,0
ONEWEB-0225,2021-045AJ,2026-07-04T04:06:56.068128,13.15547735,.00019213,87.8997,255.8154,116.0183,244.1146,0,U,48799,999,24665,.11369883E-3,.56E-6,0
ONEWEB-0215,2021-045AK,2026-07-04T03:23:34.735200,13.15549009,.00020873,87.9005,255.8046,118.3959,241.7382,0,U,48800,999,24652,-.60253137E-4,-.1E-6,0
ONEWEB-0216,2021-045AL,2026-07-03T22:08:42.163872,13.15547035,.00020135,87.9003,255.8626,97.8381,262.2978,0,U,48801,999,24650,-.46545875E-3,-.162E-5,0
ONEWEB-0239,2021-045AM,2026-07-04T03:44:06.807840,13.15547351,.00023621,87.8991,255.8210,119.6078,240.5288,0,U,48802,999,24657,-.2921698E-4,.2E-7,0
ONEWEB-0249,2021-060A,2026-07-04T01:49:43.103712,13.16595812,.00021327,87.9083,225.4240,97.6959,262.4414,0,U,48967,999,24183,-.29662166E-4,.2E-7,0
ONEWEB-0250,2021-060B,2026-07-04T01:28:22.645344,13.25834849,.00031173,87.9084,223.1284,96.9881,263.1610,0,U,48968,999,24245,.10717641E-3,.6E-6,0
ONEWEB-0252,2021-060D,2026-07-03T13:48:09.572256,13.16595093,.00018046,87.9085,225.5156,93.8730,266.2607,0,U,48970,999,24181,.22849317E-3,.1E-5,0
ONEWEB-0253,2021-060E,2026-07-04T02:18:15.105888,13.16594582,.00021625,87.9085,225.4176,97.3392,262.7985,0,U,48971,999,24181,.28161751E-3,.121E-5,0
ONEWEB-0254,2021-060F,2026-07-03T13:45:52.535808,13.16593343,.00021129,87.9079,225.5190,103.3120,256.8247,0,U,48972,999,24174,.84451042E-4,.45E-6,0
ONEWEB-0255,2021-060G,2026-07-04T01:37:12.298944,13.16593567,.00020744,87.9088,225.4276,100.7575,259.3789,0,U,48973,999,24188,.3102603E-4,.25E-6,0
ONEWEB-0256,2021-060H,2026-07-04T02:14:49.805664,13.16593967,.00019893,87.9076,225.4255,91.8014,268.3344,0,U,48974,999,24185,.10787035E-3,.54E-6,0
ONEWEB-0257,2021-060J,2026-07-04T01:12:07.388928,13.16593543,.00019818,87.9086,225.4218,97.8895,262.2460,0,U,48975,999,24180,-.2425811E-3,-.8E-6,0
ONEWEB-0258,2021-060K,2026-07-04T01:14:24.401184,13.16594025,.00021282,87.9091,225.4337,96.1967,263.9406,0,U,48976,999,24181,-.1906618E-4,.6E-7,0
ONEWEB-0259,2021-060L,2026-07-04T02:54:43.251552,13.16593894,.00022007,87.9085,225.4189,99.0643,261.0737,0,U,48977,999,24185,.11586267E-3,.57E-6,0
ONEWEB-0260,2021-060M,2026-07-04T02:42:10.441440,13.16595639,.00017209,87.9081,225.4215,88.2003,271.9325,0,U,48978,999,24183,.1756495E-3,.8E-6,0
ONEWEB-0261,2021-060N,2026-07-04T01:58:52.051296,13.16593193,.00018945,87.9079,225.4283,102.9695,257.1647,0,U,48979,999,24188,.12586525E-3,.61E-6,0
ONEWEB-0262,2021-060P,2026-07-04T01:30:21.773664,13.16593529,.00023153,87.9088,225.4184,100.6092,259.5300,0,U,48980,999,24184,-.9547923E-5,.9E-7,0
ONEWEB-0263,2021-060Q,2026-07-04T02:15:57.504384,13.16593558,.00019962,87.9085,225.4238,104.9294,255.2058,0,U,48981,999,24181,.19027167E-3,.86E-6,0
ONEWEB-0264,2021-060R,2026-07-04T01:20:05.193024,13.16596732,.00018587,87.9073,225.4343,97.3859,262.7484,0,U,48982,999,24181,.34848697E-4,.26E-6,0
ONEWEB-0266,2021-060T,2026-07-04T01:50:53.137824,13.16594994,.00021815,87.9086,225.4212,93.6969,266.4411,0,U,48984,999,24180,.13493491E-3,.64E-6,0
ONEWEB-0267,2021-060U,2026-07-03T20:38:32.187264,13.16593524,.00018897,87.9086,225.4608,101.0482,259.0861,0,U,48985,999,24178,.32481064E-3,.137E-5,0
ONEWEB-0268,2021-060V,2026-07-03T19:52:56.007264,13.16593037,.00019654,87.9083,225.4760,91.7785,268.3571,0,U,48986,999,24204,-.20081664E-3,-.64E-6,0
ONEWEB-0269,2021-060W,2026-07-04T00:53:53.030976,13.16596765,.00020437,87.9076,225.4358,88.2525,271.8840,0,U,48987,999,24184,-.14553535E-2,-.544E-5,0
ONEWEB-0270,2021-060X,2026-07-04T01:18:57.982464,13.16594035,.00021777,87.9083,225.4334,105.3793,254.7579,0,U,48988,999,24188,-.18353845E-4,.6E-7,0
ONEWEB-0271,2021-060Y,2026-07-04T01:00:43.737696,13.16593813,.00020001,87.9086,225.4252,102.0615,258.0740,0,U,48989,999,24188,.14266554E-3,.67E-6,0
ONEWEB-0272,2021-060Z,2026-07-04T01:32:39.402816,13.16595298,.00017091,87.9068,225.4325,94.8650,265.2676,0,U,48990,999,24183,-.86070854E-4,-.2E-6,0
ONEWEB-0273,2021-060AA,2026-07-04T02:04:33.647520,13.16593455,.00020557,87.9081,225.4280,99.6734,260.4629,0,U,48991,999,24181,.88069275E-4,.47E-6,0
ONEWEB-0274,2021-060AB,2026-07-04T00:51:36.169056,13.16595195,.00017652,87.9075,225.4388,91.2928,268.8405,0,U,48992,999,24184,.13124114E-3,.63E-6,0
