ONEWEB-0236             
1 48797U 21045AG  26185.13662488 -.00000028  00000+0 -10719-3 0  9999
2 48797  87.8992 255.8293 0002122  97.3716 262.7655 13.15547627246482
ONEWEB-0248             
1 48798U 21045AH  26185.14929797  .00000012  00000+0 -26719-5 0  9991
2 48798  87.9004 255.8124 0002216 112.2632 247.8734 13.15548550246645
ONEWEB-0225             
1 48799U 21045AJ  26185.17148227  .00000056  00000+0  11370-3 0  9998
2 48799  87.8997 255.8154 0001921 116.0183 244.1146 13.15547735246656
ONEWEB-0215             
1 48800U 21045AK  26185.14137425 -.00000010  00000+0 -60253-4 0  9993
2 48800  87.9005 255.8046 0002087 118.3959 241.7382 13.15549009246527
ONEWEB-0216             
1 48801U 21045AL  26184.92271023 -.00000162  00000+0 -46546-3 0  9998
2 48801  87.9003 255.8626 0002013  97.8381 262.2978 13.15547035246503
ONEWEB-0239             
1 48802U 21045AM  26185.15563435  .00000002  00000+0 -29217-4 0  9995
2 48802  87.8991 255.8210 0002362 119.6078 240.5288 13.15547351246572
ONEWEB-0249             
1 48967U 21060A   26185.07619333  .00000002  00000+0 -29662-4 0  9998
2 48967  87.9083 225.4240 0002132  97.6959 262.4414 13.16595812241835
ONEWEB-0250             
1 48968U 21060B   26185.06137321  .00000060  00000+0  10718-3 0  9994
2 48968  87.9084 223.1284 0003117  96.9881 263.1610 13.25834849242451
ONEWEB-0252             
1 48970U 21060D   26184.57511079  .00000100  00000+0  22849-3 0  9991
2 48970  87.9085 225.5156 0001804  93.8730 266.2607 13.16595093241813
ONEWEB-0253             
1 48971U 21060E   26185.09600817  .00000121  00000+0  28162-3 0  9996
2 48971  87.9085 225.4176 0002162  97.3392 262.7985 13.16594582241818
ONEWEB-0254             
1 48972U 21060F   26184.57352472  .00000045  00000+0  84451-4 0  9999
2 48972  87.9079 225.5190 0002112 103.3120 256.8247 13.16593343241742
ONEWEB-0255             
1 48973U 21060G   26185.06750346  .00000025  00000+0  31026-4 0  9995
2 48973  87.9088 225.4276 0002074 100.7575 259.3789 13.16593567241881
ONEWEB-0256             
1 48974U 21060H   26185.09363201  .00000054  00000+0  10787-3 0  9991
2 48974  87.9076 225.4255 0001989  91.8014 268.3344 13.16593967241856
ONEWEB-0257             
1 48975U 21060J   26185.05008552 -.00000080  00000+0 -24258-3 0  9992
2 48975  87.9086 225.4218 0001981  97.8895 262.2460 13.16593543241809
ONEWEB-0258             
1 48976U 21060K   26185.05167131  .00000006  00000+0 -19066-4 0  9991
2 48976  87.9091 225.4337 0002128  96.1967 263.9406 13.16594025241819
ONEWEB-0259             
1 48977U 21060L   26185.12133393  .00000057  00000+0  11586-3 0  9996
2 48977  87.9085 225.4189 0002200  99.0643 261.0737 13.16593894241855
ONEWEB-0260             
1 48978U 21060M   26185.11262085  .00000080  00000+0  17565-3 0  9996
2 48978  87.9081 225.4215 0001720  88.2003 271.9325 13.16595639241838
ONEWEB-0261             
1 48979U 21060N   26185.08254689  .00000061  00000+0  12587-3 0  9992
2 48979  87.9079 225.4283 0001894 102.9695 257.1647 13.16593193241885
ONEWEB-0262             
1 48980U 21060P   26185.06275201  .00000009  00000+0 -95479-5 0  9991
2 48980  87.9088 225.4184 0002315 100.6092 259.5300 13.16593529241843
ONEWEB-0263             
1 48981U 21060Q   26185.09441556  .00000086  00000+0  19027-3 0  9990
2 48981  87.9085 225.4238 0001996 104.9294 255.2058 13.16593558241818
ONEWEB-0264             
1 48982U 21060R   26185.05561566  .00000026  00000+0  34849-4 0  9995
2 48982  87.9073 225.4343 0001858  97.3859 262.7484 13.16596732241815
ONEWEB-0266             
1 48984U 21060T   26185.07700391  .00000064  00000+0  13493-3 0  9993
2 48984  87.9086 225.4212 0002181  93.6969 266.4411 13.16594994241805
ONEWEB-0267             
1 48985U 21060U   26184.86009476  .00000137  00000+0  32481-3 0  9995
2 48985  87.9086 225.4608 0001889 101.0482 259.0861 13.16593524241785
ONEWEB-0268             
1 48986U 21060V   26184.82842601 -.00000064  00000+0 -20082-3 0  9992
2 48986  87.9083 225.4760 0001965  91.7785 268.3571 13.16593037242048
ONEWEB-0269             
1 48987U 21060W   26185.03741934 -.00000544  00000+0 -14554-2 0  9993
2 48987  87.9076 225.4358 0002043  88.2525 271.8840 13.16596765241841
ONEWEB-0270             
1 48988U 21060X   26185.05483776  .00000006  00000+0 -18354-4 0  9999
2 48988  87.9083 225.4334 0002177 105.3793 254.7579 13.16594035241881
ONEWEB-0271             
1 48989U 21060Y   26185.04217289  .00000067  00000+0  14267-3 0  9997
2 48989  87.9086 225.4252 0002000 102.0615 258.0740 13.16593813241886
ONEWEB-0272             
1 48990U 21060Z   26185.06434494 -.00000020  00000+0 -86071-4 0  9994
2 48990  87.9068 225.4325 0001709  94.8650 265.2676 13.16595298241833
ONEWEB-0273             
1 48991U 21060AA  26185.08650055  .00000047  00000+0  88069-4 0  9996
2 48991  87.9081 225.4280 0002055  99.6734 260.4629 13.16593455241816
ONEWEB-0274             
1 48992U 21060AB  26185.03583529  .00000063  00000+0  13124-3 0  9990
2 48992  87.9075 225.4388 0001765  91.2928 268.8405 13.16595195241849
